<?xml version="1.0" encoding="UTF-8"?>
<ndm xmlns:xsi="http://www.w3.org/2001/XMLSchema-instance" xsi:noNamespaceSchemaLocation="https://sanaregistry.org/r/ndmxml_unqualified/ndmxml-2.0.0-master-2.0.xsd">
<omm id="CCSDS_OMM_VERS" version="2.0">
<header><CREATION_DATE/><ORIGINATOR/></header><body><segment><metadata><OBJECT_NAME>KUIPER-00157</OBJECT_NAME><OBJECT_ID>2025-228Z</OBJECT_ID><CENTER_NAME>EARTH</CENTER_NAME><REF_FRAME>TEME</REF_FRAME><TIME_SYSTEM>UTC</TIME_SYSTEM><MEAN_ELEMENT_THEORY>SGP4</MEAN_ELEMENT_THEORY></metadata><data><meanElements><EPOCH>2025-10-24T06:00:02.000160</EPOCH><MEAN_MOTION>15.34129729</MEAN_MOTION><ECCENTRICITY>.00058932</ECCENTRICITY><INCLINATION>51.8808</INCLINATION><RA_OF_ASC_NODE>259.0007</RA_OF_ASC_NODE><ARG_OF_PERICENTER>188.1500</ARG_OF_PERICENTER><MEAN_ANOMALY>222.9799</MEAN_ANOMALY></meanElements><tleParameters><EPHEMERIS_TYPE>0</EPHEMERIS_TYPE><CLASSIFICATION_TYPE>U</CLASSIFICATION_TYPE><NORAD_CAT_ID>65970</NORAD_CAT_ID><ELEMENT_SET_NO>999</ELEMENT_SET_NO><REV_AT_EPOCH>265</REV_AT_EPOCH><BSTAR>.15951225E-2</BSTAR><MEAN_MOTION_DOT>.53512E-3</MEAN_MOTION_DOT><MEAN_MOTION_DDOT>0</MEAN_MOTION_DDOT></tleParameters></data></segment></body></omm>
</ndm>
