KUIPER-00157            
1 65970U 25228Z   25297.25002315  .00053512  00000+0  15951-2 0  9997
2 65970  51.8808 259.0007 0005893 188.1500 222.9799 15.34129729  2656
